CCSDS_OMM_VERS = 2.0
CREATION_DATE  = 
ORIGINATOR     = 

OBJECT_NAME    = SL-14 R/B
OBJECT_ID      = 1991-042B
CENTER_NAME    = EARTH
REF_FRAME      = TEME
TIME_SYSTEM    = UTC
MEAN_ELEMENT_THEORY = SGP/SGP4

EPOCH          = 2025-12-12T04:10:54.024096
MEAN_MOTION    = 14.81738026
ECCENTRICITY   = .0017406
INCLINATION    = 82.4926
RA_OF_ASC_NODE = 302.2531
ARG_OF_PERICENTER = 163.6018
MEAN_ANOMALY   = 196.5763

EPHEMERIS_TYPE = 0
CLASSIFICATION_TYPE = U
NORAD_CAT_ID   = 21423
ELEMENT_SET_NO = 999
REV_AT_EPOCH   = 84011
BSTAR          = .89346E-4
MEAN_MOTION_DOT = .729E-5
MEAN_MOTION_DDOT = 0

CCSDS_OMM_VERS = 2.0
CREATION_DATE  = 
ORIGINATOR     = 

OBJECT_NAME    = ERS-1
OBJECT_ID      = 1991-050A
CENTER_NAME    = EARTH
REF_FRAME      = TEME
TIME_SYSTEM    = UTC
MEAN_ELEMENT_THEORY = SGP/SGP4

EPOCH          = 2025-12-12T01:00:08.925408
MEAN_MOTION    = 14.39363748
ECCENTRICITY   = .0032999
INCLINATION    = 98.7906
RA_OF_ASC_NODE = 357.0791
ARG_OF_PERICENTER = 102.0606
MEAN_ANOMALY   = 258.4282

EPHEMERIS_TYPE = 0
CLASSIFICATION_TYPE = U
NORAD_CAT_ID   = 21574
ELEMENT_SET_NO = 999
REV_AT_EPOCH   = 80312
BSTAR          = .18581E-3
MEAN_MOTION_DOT = .535E-5
MEAN_MOTION_DDOT = 0

CCSDS_OMM_VERS = 2.0
CREATION_DATE  = 
ORIGINATOR     = 

OBJECT_NAME    = ARIANE 40 R/B
OBJECT_ID      = 1991-050F
CENTER_NAME    = EARTH
REF_FRAME      = TEME
TIME_SYSTEM    = UTC
MEAN_ELEMENT_THEORY = SGP/SGP4

EPOCH          = 2025-12-12T03:53:46.329792
MEAN_MOTION    = 14.42812766
ECCENTRICITY   = .0002811
INCLINATION    = 98.2164
RA_OF_ASC_NODE = 36.6135
ARG_OF_PERICENTER = 3.1048
MEAN_ANOMALY   = 357.0160

EPHEMERIS_TYPE = 0
CLASSIFICATION_TYPE = U
NORAD_CAT_ID   = 21610
ELEMENT_SET_NO = 999
REV_AT_EPOCH   = 80637
BSTAR          = .18311E-3
MEAN_MOTION_DOT = .569E-5
MEAN_MOTION_DDOT = 0

CCSDS_OMM_VERS = 2.0
CREATION_DATE  = 
ORIGINATOR     = 

OBJECT_NAME    = INTERCOSMOS 25
OBJECT_ID      = 1991-086A
CENTER_NAME    = EARTH
REF_FRAME      = TEME
TIME_SYSTEM    = UTC
MEAN_ELEMENT_THEORY = SGP/SGP4

EPOCH          = 2025-12-12T03:21:37.579392
MEAN_MOTION    = 12.11723609
ECCENTRICITY   = .1486666
INCLINATION    = 82.6075
RA_OF_ASC_NODE = 2.9389
ARG_OF_PERICENTER = 305.6887
MEAN_ANOMALY   = 41.4507

EPHEMERIS_TYPE = 0
CLASSIFICATION_TYPE = U
NORAD_CAT_ID   = 21819
ELEMENT_SET_NO = 999
REV_AT_EPOCH   = 48608
BSTAR          = .44762E-3
MEAN_MOTION_DOT = .2252E-4
MEAN_MOTION_DDOT = 0

CCSDS_OMM_VERS = 2.0
CREATION_DATE  = 
ORIGINATOR     = 

OBJECT_NAME    = SL-8 R/B
OBJECT_ID      = 1992-008B
CENTER_NAME    = EARTH
REF_FRAME      = TEME
TIME_SYSTEM    = UTC
MEAN_ELEMENT_THEORY = SGP/SGP4

EPOCH          = 2025-12-12T02:24:28.046304
MEAN_MOTION    = 13.75958642
ECCENTRICITY   = .0035231
INCLINATION    = 82.9264
RA_OF_ASC_NODE = 332.9220
ARG_OF_PERICENTER = 21.5620
MEAN_ANOMALY   = 53.0715

EPHEMERIS_TYPE = 0
CLASSIFICATION_TYPE = U
NORAD_CAT_ID   = 21876
ELEMENT_SET_NO = 999
REV_AT_EPOCH   = 69737
BSTAR          = .1594E-3
MEAN_MOTION_DOT = .17E-5
MEAN_MOTION_DDOT = 0

CCSDS_OMM_VERS = 2.0
CREATION_DATE  = 
ORIGINATOR     = 

OBJECT_NAME    = SL-8 R/B
OBJECT_ID      = 1992-020B
CENTER_NAME    = EARTH
REF_FRAME      = TEME
TIME_SYSTEM    = UTC
MEAN_ELEMENT_THEORY = SGP/SGP4

EPOCH          = 2025-12-12T03:00:03.252096
MEAN_MOTION    = 13.75526943
ECCENTRICITY   = .0028851
INCLINATION    = 82.9306
RA_OF_ASC_NODE = 218.7740
ARG_OF_PERICENTER = 179.8740
MEAN_ANOMALY   = 297.9282

EPHEMERIS_TYPE = 0
CLASSIFICATION_TYPE = U
NORAD_CAT_ID   = 21938
ELEMENT_SET_NO = 999
REV_AT_EPOCH   = 68909
BSTAR          = .11368E-3
MEAN_MOTION_DOT = .125E-5
MEAN_MOTION_DDOT = 0

CCSDS_OMM_VERS = 2.0
CREATION_DATE  = 
ORIGINATOR     = 

OBJECT_NAME    = USA 81
OBJECT_ID      = 1992-023A
CENTER_NAME    = EARTH
REF_FRAME      = TEME
TIME_SYSTEM    = UTC
MEAN_ELEMENT_THEORY = SGP/SGP4

EPOCH          = 2025-12-12T01:20:38.139072
MEAN_MOTION    = 14.32326481
ECCENTRICITY   = .0001439
INCLINATION    = 85.0081
RA_OF_ASC_NODE = 181.9706
ARG_OF_PERICENTER = 64.7482
MEAN_ANOMALY   = 295.3859

EPHEMERIS_TYPE = 0
CLASSIFICATION_TYPE = U
NORAD_CAT_ID   = 21949
ELEMENT_SET_NO = 999
REV_AT_EPOCH   = 8224
BSTAR          = .96156E-4
MEAN_MOTION_DOT = .279E-5
MEAN_MOTION_DDOT = 0

CCSDS_OMM_VERS = 2.0
CREATION_DATE  = 
ORIGINATOR     = 

OBJECT_NAME    = COSMOS 2219
OBJECT_ID      = 1992-076A
CENTER_NAME    = EARTH
REF_FRAME      = TEME
TIME_SYSTEM    = UTC
MEAN_ELEMENT_THEORY = SGP/SGP4

EPOCH          = 2025-12-12T02:06:40.239072
MEAN_MOTION    = 14.14062535
ECCENTRICITY   = .0019069
INCLINATION    = 71.0582
RA_OF_ASC_NODE = 201.1955
ARG_OF_PERICENTER = 327.7715
MEAN_ANOMALY   = 32.2240

EPHEMERIS_TYPE = 0
CLASSIFICATION_TYPE = U
NORAD_CAT_ID   = 22219
ELEMENT_SET_NO = 999
REV_AT_EPOCH   = 70599
BSTAR          = .69047E-5
MEAN_MOTION_DOT = -.34E-6
MEAN_MOTION_DDOT = 0

CCSDS_OMM_VERS = 2.0
CREATION_DATE  = 
ORIGINATOR     = 

OBJECT_NAME    = SL-16 R/B
OBJECT_ID      = 1992-076B
CENTER_NAME    = EARTH
REF_FRAME      = TEME
TIME_SYSTEM    = UTC
MEAN_ELEMENT_THEORY = SGP/SGP4

EPOCH          = 2025-12-12T03:40:48.677088
MEAN_MOTION    = 14.16840908
ECCENTRICITY   = .0014804
INCLINATION    = 71.0006
RA_OF_ASC_NODE = 12.7675
ARG_OF_PERICENTER = 234.9422
MEAN_ANOMALY   = 191.1062

EPHEMERIS_TYPE = 0
CLASSIFICATION_TYPE = U
NORAD_CAT_ID   = 22220
ELEMENT_SET_NO = 999
REV_AT_EPOCH   = 70943
BSTAR          = -.20243E-4
MEAN_MOTION_DOT = -.89E-6
MEAN_MOTION_DDOT = 0

CCSDS_OMM_VERS = 2.0
CREATION_DATE  = 
ORIGINATOR     = 

OBJECT_NAME    = COSMOS 2221
OBJECT_ID      = 1992-080A
CENTER_NAME    = EARTH
REF_FRAME      = TEME
TIME_SYSTEM    = UTC
MEAN_ELEMENT_THEORY = SGP/SGP4

EPOCH          = 2025-12-12T03:34:23.379744
MEAN_MOTION    = 14.95757251
ECCENTRICITY   = .0015996
INCLINATION    = 82.5048
RA_OF_ASC_NODE = 2.8911
ARG_OF_PERICENTER = 123.4412
MEAN_ANOMALY   = 236.8342

EPHEMERIS_TYPE = 0
CLASSIFICATION_TYPE = U
NORAD_CAT_ID   = 22236
ELEMENT_SET_NO = 999
REV_AT_EPOCH   = 76770
BSTAR          = .26638E-3
MEAN_MOTION_DOT = .3001E-4
MEAN_MOTION_DDOT = 0

CCSDS_OMM_VERS = 2.0
CREATION_DATE  = 
ORIGINATOR     = 

OBJECT_NAME    = SL-16 R/B
OBJECT_ID      = 1992-093B
CENTER_NAME    = EARTH
REF_FRAME      = TEME
TIME_SYSTEM    = UTC
MEAN_ELEMENT_THEORY = SGP/SGP4

EPOCH          = 2025-12-12T00:53:50.004384
MEAN_MOTION    = 14.15428896
ECCENTRICITY   = .0002155
INCLINATION    = 71.0200
RA_OF_ASC_NODE = 188.2702
ARG_OF_PERICENTER = 74.4171
MEAN_ANOMALY   = 285.7189

EPHEMERIS_TYPE = 0
CLASSIFICATION_TYPE = U
NORAD_CAT_ID   = 22285
ELEMENT_SET_NO = 999
REV_AT_EPOCH   = 70075
BSTAR          = .1978E-3
MEAN_MOTION_DOT = .339E-5
MEAN_MOTION_DDOT = 0

CCSDS_OMM_VERS = 2.0
CREATION_DATE  = 
ORIGINATOR     = 

OBJECT_NAME    = COSMOS 2228
OBJECT_ID      = 1992-094A
CENTER_NAME    = EARTH
REF_FRAME      = TEME
TIME_SYSTEM    = UTC
MEAN_ELEMENT_THEORY = SGP/SGP4

EPOCH          = 2025-12-12T02:07:36.748992
MEAN_MOTION    = 14.96725388
ECCENTRICITY   = .0016524
INCLINATION    = 82.5181
RA_OF_ASC_NODE = 321.1575
ARG_OF_PERICENTER = 233.7712
MEAN_ANOMALY   = 126.1983

EPHEMERIS_TYPE = 0
CLASSIFICATION_TYPE = U
NORAD_CAT_ID   = 22286
ELEMENT_SET_NO = 999
REV_AT_EPOCH   = 76295
BSTAR          = .368E-3
MEAN_MOTION_DOT = .424E-4
MEAN_MOTION_DDOT = 0

