SL-14 R/B               
1 21423U 91042B   25346.17423639  .00000729  00000+0  89346-4 0  9994
2 21423  82.4926 302.2531 0017406 163.6018 196.5763 14.81738026840115
ERS-1                   
1 21574U 91050A   25346.04176997  .00000535  00000+0  18581-3 0  9995
2 21574  98.7906 357.0791 0032999 102.0606 258.4282 14.39363748803122
ARIANE 40 R/B           
1 21610U 91050F   25346.16234178  .00000569  00000+0  18311-3 0  9993
2 21610  98.2164  36.6135 0002811   3.1048 357.0160 14.42812766806371
INTERCOSMOS 25          
1 21819U 91086A   25346.14001828  .00002252  00000+0  44762-3 0  9995
2 21819  82.6075   2.9389 1486666 305.6887  41.4507 12.11723609486085
SL-8 R/B                
1 21876U 92008B   25346.10032461  .00000170  00000+0  15940-3 0  9999
2 21876  82.9264 332.9220 0035231  21.5620  53.0715 13.75958642697371
SL-8 R/B                
1 21938U 92020B   25346.12503764  .00000125  00000+0  11368-3 0  9993
2 21938  82.9306 218.7740 0028851 179.8740 297.9282 13.75526943689098
USA 81                  
1 21949U 92023A   25346.05599698  .00000279  00000+0  96156-4 0  9990
2 21949  85.0081 181.9706 0001439  64.7482 295.3859 14.32326481 82240
COSMOS 2219             
1 22219U 92076A   25346.08796573 -.00000034  00000+0  69047-5 0  9993
2 22219  71.0582 201.1955 0019069 327.7715  32.2240 14.14062535705995
SL-16 R/B               
1 22220U 92076B   25346.15334117 -.00000089  00000+0 -20243-4 0  9990
2 22220  71.0006  12.7675 0014804 234.9422 191.1062 14.16840908709439
COSMOS 2221             
1 22236U 92080A   25346.14888171  .00003001  00000+0  26638-3 0  9993
2 22236  82.5048   2.8911 0015996 123.4412 236.8342 14.95757251767703
SL-16 R/B               
1 22285U 92093B   25346.03738431  .00000339  00000+0  19780-3 0  9993
2 22285  71.0200 188.2702 0002155  74.4171 285.7189 14.15428896700753
COSMOS 2228             
1 22286U 92094A   25346.08861978  .00004240  00000+0  36800-3 0  9990
2 22286  82.5181 321.1575 0016524 233.7712 126.1983 14.96725388762956
